ORBCOMM FM37            
1 33064U 08031E   24283.23559074  .00008721  00000+0  12308-2 0  9995
2 33064  48.4389  95.0403 0005018  11.9663 158.6023 14.77714960877222
ORBCOMM FM40            
1 33065U 08031F   24282.80604236  .00011341  00000+0  15310-2 0  9997
2 33065  48.4414  84.8378 0006096  21.0114 115.0316 14.79355801876902
VESSELSAT 1             
1 37840U 11058C   24282.39530539  .00001308  00000+0  56919-3 0  9996
2 37840  19.9610 177.3591 0013508 297.0456  62.8570 14.11234591670690
ORBCOMM FM109           
1 40086U 14040A   24282.86085919  .00003305  00000+0  75983-3 0  9996
2 40086  47.0015 122.5488 0002587 239.8560 120.2069 14.57310255544390
ORBCOMM FM107           
1 40087U 14040B   24283.03333725  .00003622  00000+0  83000-3 0  9999
2 40087  47.0032 122.7367 0001869 219.1236 140.9514 14.57253270544534
ORBCOMM FM106           
1 40088U 14040C   24283.16453500  .00005802  00000+0  10321-2 0  9995
2 40088  47.0605 323.9222 0018264 338.5545  21.4579 14.67945796546787
ORBCOMM FM111           
1 40089U 14040D   24282.86997177  .00012387  00000+0  15044-2 0  9998
2 40089  47.0018 208.1467 0031889  71.5292 288.9065 14.83328285552875
ORBCOMM FM104           
1 40090U 14040E   24283.09488655  .00004183  00000+0  98343-3 0  9991
2 40090  47.0029 153.1002 0016686 139.5605 220.6522 14.55711790544120
